{
  "type": "FeatureCollection",
  "features": [
    {
      "type": "Feature",
      "properties": {
        "parcel_id": "P001",
        "land_use": "Commercial High-Rise Complex",
        "area": 2880.0,
        "survey_number": "SURV-101/UP",
        "status": "Active"
      },
      "geometry": {
        "type": "Polygon",
        "coordinates": [
          [
            [
              81.8466963,
              25.4365683
            ],
            [
              81.8468504,
              25.4366213
            ],
            [
              81.8468578,
              25.4366038
            ],
            [
              81.8469339,
              25.4366299
            ],
            [
              81.8469415,
              25.4366118
            ],
            [
              81.8471005,
              25.4366663
            ],
            [
              81.8472471,
              25.4363174
            ],
            [
              81.8470193,
              25.4362394
            ],
            [
              81.846993,
              25.4363017
            ],
            [
              81.8465265,
              25.4361417
            ],
            [
              81.8464381,
              25.436352
            ],
            [
              81.8465121,
              25.4363774
            ],
            [
              81.8464608,
              25.4364995
            ],
            [
              81.846692,
              25.4365787
            ],
            [
              81.8466963,
              25.4365683
            ]
          ]
        ]
      }
    },
    {
      "type": "Feature",
      "properties": {
        "parcel_id": "P002",
        "land_use": "Civic Administrative Center",
        "area": 2583.8,
        "survey_number": "SURV-202/UP",
        "status": "Active"
      },
      "geometry": {
        "type": "Polygon",
        "coordinates": [
          [
            [
              81.8445077,
              25.4337063
            ],
            [
              81.8444362,
              25.4337055
            ],
            [
              81.8444316,
              25.4340336
            ],
            [
              81.844515,
              25.4340346
            ],
            [
              81.8445132,
              25.4341571
            ],
            [
              81.844795,
              25.4341603
            ],
            [
              81.8447952,
              25.4341448
            ],
            [
              81.844935,
              25.4341464
            ],
            [
              81.8449418,
              25.4336615
            ],
            [
              81.8447512,
              25.4336591
            ],
            [
              81.8447506,
              25.4337023
            ],
            [
              81.8447258,
              25.433702
            ],
            [
              81.8447261,
              25.4336813
            ],
            [
              81.8445081,
              25.4336786
            ],
            [
              81.8445077,
              25.4337063
            ]
          ]
        ]
      }
    },
    {
      "type": "Feature",
      "properties": {
        "parcel_id": "P003",
        "land_use": "Healthcare / Hospital Wing",
        "area": 2499.2,
        "survey_number": "SURV-303/UP",
        "status": "Active"
      },
      "geometry": {
        "type": "Polygon",
        "coordinates": [
          [
            [
              81.8459406,
              25.4371011
            ],
            [
              81.8463505,
              25.4372282
            ],
            [
              81.8463643,
              25.4371919
            ],
            [
              81.8465254,
              25.4372417
            ],
            [
              81.8465657,
              25.4371361
            ],
            [
              81.846543,
              25.4371292
            ],
            [
              81.8465557,
              25.4370956
            ],
            [
              81.8465019,
              25.4370789
            ],
            [
              81.8465365,
              25.4369878
            ],
            [
              81.8464703,
              25.4369673
            ],
            [
              81.8465132,
              25.4368543
            ],
            [
              81.8464626,
              25.4368386
            ],
            [
              81.8464754,
              25.4368049
            ],
            [
              81.8460977,
              25.4366878
            ],
            [
              81.8459406,
              25.4371011
            ]
          ]
        ]
      }
    },
    {
      "type": "Feature",
      "properties": {
        "parcel_id": "P004",
        "land_use": "Corporate Technology Hub",
        "area": 2421.9,
        "survey_number": "SURV-404/UP",
        "status": "Active"
      },
      "geometry": {
        "type": "Polygon",
        "coordinates": [
          [
            [
              81.8441137,
              25.4354977
            ],
            [
              81.8442486,
              25.4354956
            ],
            [
              81.8442401,
              25.4350562
            ],
            [
              81.8442248,
              25.4350565
            ],
            [
              81.8442244,
              25.4350334
            ],
            [
              81.8442462,
              25.4350331
            ],
            [
              81.8442432,
              25.434881
            ],
            [
              81.8438948,
              25.4348865
            ],
            [
              81.8439071,
              25.4355279
            ],
            [
              81.8441142,
              25.4355247
            ],
            [
              81.8441137,
              25.4354977
            ]
          ]
        ]
      }
    },
    {
      "type": "Feature",
      "properties": {
        "parcel_id": "P005",
        "land_use": "Public Transit Terminal",
        "area": 2102.1,
        "survey_number": "SURV-505/UP",
        "status": "Active"
      },
      "geometry": {
        "type": "Polygon",
        "coordinates": [
          [
            [
              81.845473,
              25.433821
            ],
            [
              81.8454754,
              25.4341328
            ],
            [
              81.846126,
              25.4341288
            ],
            [
              81.8461246,
              25.4339538
            ],
            [
              81.8457242,
              25.4339563
            ],
            [
              81.8457228,
              25.4337855
            ],
            [
              81.8456421,
              25.433786
            ],
            [
              81.8456409,
              25.433631
            ],
            [
              81.845445,
              25.4336321
            ],
            [
              81.8454465,
              25.4338212
            ],
            [
              81.845473,
              25.433821
            ]
          ]
        ]
      }
    },
    {
      "type": "Feature",
      "properties": {
        "parcel_id": "P006",
        "land_use": "Diagnostic Health Center",
        "area": 1604.2,
        "survey_number": "SURV-606/UP",
        "status": "Active"
      },
      "geometry": {
        "type": "Polygon",
        "coordinates": [
          [
            [
              81.8451167,
              25.4363679
            ],
            [
              81.8455464,
              25.4362952
            ],
            [
              81.8454797,
              25.4359729
            ],
            [
              81.8450499,
              25.4360456
            ],
            [
              81.8451167,
              25.4363679
            ]
          ]
        ]
      }
    },
    {
      "type": "Feature",
      "properties": {
        "parcel_id": "P007",
        "land_use": "Commercial Retail Arcade",
        "area": 1539.0,
        "survey_number": "SURV-707/UP",
        "status": "Active"
      },
      "geometry": {
        "type": "Polygon",
        "coordinates": [
          [
            [
              81.8452432,
              25.434153
            ],
            [
              81.845535,
              25.434152
            ],
            [
              81.845534,
              25.4339256
            ],
            [
              81.8455132,
              25.4339257
            ],
            [
              81.8455126,
              25.4337844
            ],
            [
              81.8454984,
              25.4337845
            ],
            [
              81.8454978,
              25.4336553
            ],
            [
              81.845241,
              25.4336562
            ],
            [
              81.8452432,
              25.434153
            ]
          ]
        ]
      }
    },
    {
      "type": "Feature",
      "properties": {
        "parcel_id": "P008",
        "land_use": "Mixed Retail Plaza",
        "area": 1537.8,
        "survey_number": "SURV-808/UP",
        "status": "Active"
      },
      "geometry": {
        "type": "Polygon",
        "coordinates": [
          [
            [
              81.8438963,
              25.4348231
            ],
            [
              81.8441019,
              25.4348187
            ],
            [
              81.8441016,
              25.4348066
            ],
            [
              81.8442128,
              25.4348042
            ],
            [
              81.8442088,
              25.4346518
            ],
            [
              81.8441792,
              25.4346525
            ],
            [
              81.8441718,
              25.4343702
            ],
            [
              81.8441057,
              25.4343716
            ],
            [
              81.844105,
              25.4343467
            ],
            [
              81.8438839,
              25.4343514
            ],
            [
              81.8438963,
              25.4348231
            ]
          ]
        ]
      }
    },
    {
      "type": "Feature",
      "properties": {
        "parcel_id": "P009",
        "land_use": "Residential Gated Enclave",
        "area": 1369.7,
        "survey_number": "SURV-909/UP",
        "status": "Active"
      },
      "geometry": {
        "type": "Polygon",
        "coordinates": [
          [
            [
              81.8438809,
              25.4370356
            ],
            [
              81.84429,
              25.437023
            ],
            [
              81.8442788,
              25.4367243
            ],
            [
              81.8438695,
              25.4367369
            ],
            [
              81.8438809,
              25.4370356
            ]
          ]
        ]
      }
    },
    {
      "type": "Feature",
      "properties": {
        "parcel_id": "P010",
        "land_use": "Educational Institute",
        "area": 1347.1,
        "survey_number": "SURV-1010/UP",
        "status": "Active"
      },
      "geometry": {
        "type": "Polygon",
        "coordinates": [
          [
            [
              81.8449581,
              25.4376382
            ],
            [
              81.8449781,
              25.4376382
            ],
            [
              81.8450129,
              25.4377537
            ],
            [
              81.8452681,
              25.437699
            ],
            [
              81.845394,
              25.4373547
            ],
            [
              81.844913,
              25.4374468
            ],
            [
              81.8449581,
              25.4376382
            ]
          ]
        ]
      }
    },
    {
      "type": "Feature",
      "properties": {
        "parcel_id": "P011",
        "land_use": "Institutional Research Center",
        "area": 1337.4,
        "survey_number": "SURV-1111/UP",
        "status": "Active"
      },
      "geometry": {
        "type": "Polygon",
        "coordinates": [
          [
            [
              81.8439591,
              25.4362093
            ],
            [
              81.8439623,
              25.4362323
            ],
            [
              81.8443154,
              25.4361919
            ],
            [
              81.844278,
              25.4359246
            ],
            [
              81.844122,
              25.4359424
            ],
            [
              81.8441176,
              25.4359111
            ],
            [
              81.8438587,
              25.4359406
            ],
            [
              81.8438973,
              25.4362163
            ],
            [
              81.8439591,
              25.4362093
            ]
          ]
        ]
      }
    },
    {
      "type": "Feature",
      "properties": {
        "parcel_id": "P012",
        "land_use": "Eye Care Specialty Center",
        "area": 1306.5,
        "survey_number": "SURV-1212/UP",
        "status": "Active"
      },
      "geometry": {
        "type": "Polygon",
        "coordinates": [
          [
            [
              81.8471524,
              25.4358945
            ],
            [
              81.8475128,
              25.4358241
            ],
            [
              81.8474388,
              25.4355146
            ],
            [
              81.8470784,
              25.4355849
            ],
            [
              81.8471524,
              25.4358945
            ]
          ]
        ]
      }
    },
    {
      "type": "Feature",
      "properties": {
        "parcel_id": "P013",
        "land_use": "Urban Commercial Plaza",
        "area": 1392.6,
        "survey_number": "SURV-1313/UP",
        "status": "Active"
      },
      "geometry": {
        "type": "Polygon",
        "coordinates": [
          [
            [
              81.8472801,
              25.4363425
            ],
            [
              81.8477588,
              25.4365121
            ],
            [
              81.8478463,
              25.4363107
            ],
            [
              81.8473033,
              25.4361183
            ],
            [
              81.8472259,
              25.4362963
            ],
            [
              81.8472903,
              25.4363192
            ],
            [
              81.8472801,
              25.4363425
            ]
          ]
        ]
      }
    },
    {
      "type": "Feature",
      "properties": {
        "parcel_id": "P014",
        "land_use": "Multi-family Residential",
        "area": 1302.7,
        "survey_number": "SURV-1414/UP",
        "status": "Active"
      },
      "geometry": {
        "type": "Polygon",
        "coordinates": [
          [
            [
              81.8471228,
              25.4376288
            ],
            [
              81.8472316,
              25.4372358
            ],
            [
              81.8469528,
              25.4371729
            ],
            [
              81.846844,
              25.437566
            ],
            [
              81.8471228,
              25.4376288
            ]
          ]
        ]
      }
    },
    {
      "type": "Feature",
      "properties": {
        "parcel_id": "P015",
        "land_use": "City Park & Green Amenity",
        "area": 1299.3,
        "survey_number": "SURV-1515/UP",
        "status": "Active"
      },
      "geometry": {
        "type": "Polygon",
        "coordinates": [
          [
            [
              81.843912,
              25.4358124
            ],
            [
              81.8443392,
              25.4357844
            ],
            [
              81.8443175,
              25.435514
            ],
            [
              81.8438902,
              25.435542
            ],
            [
              81.843912,
              25.4358124
            ]
          ]
        ]
      }
    }
  ]
}