{
  "type": "FeatureCollection",
  "features": [
    {
      "type": "Feature",
      "properties": {
        "building_id": "B001",
        "parcel_id": "P001",
        "ground_elevation": 100.36,
        "roof_elevation": 118.36,
        "height": 18.0,
        "floor_count": 6,
        "building_type": "Commercial High-Rise Complex"
      },
      "geometry": {
        "type": "Polygon",
        "coordinates": [
          [
            [
              81.8470792,
              25.4366188
            ],
            [
              81.8471963,
              25.4363402
            ],
            [
              81.8470405,
              25.4362868
            ],
            [
              81.8470142,
              25.4363492
            ],
            [
              81.8465478,
              25.4361892
            ],
            [
              81.8464889,
              25.4363293
            ],
            [
              81.8465629,
              25.4363547
            ],
            [
              81.8465116,
              25.4364767
            ],
            [
              81.8466705,
              25.4365312
            ],
            [
              81.8466748,
              25.4365208
            ],
            [
              81.8468292,
              25.4365738
            ],
            [
              81.8468366,
              25.4365563
            ],
            [
              81.8469126,
              25.4365824
            ],
            [
              81.8469202,
              25.4365643
            ],
            [
              81.8470792,
              25.4366188
            ]
          ]
        ]
      }
    },
    {
      "type": "Feature",
      "properties": {
        "building_id": "B002",
        "parcel_id": "P002",
        "ground_elevation": 98.66,
        "roof_elevation": 113.66,
        "height": 15.0,
        "floor_count": 5,
        "building_type": "Civic Administrative Center"
      },
      "geometry": {
        "type": "Polygon",
        "coordinates": [
          [
            [
              81.8445518,
              25.4341195
            ],
            [
              81.8447575,
              25.4341219
            ],
            [
              81.8447577,
              25.4341064
            ],
            [
              81.8448975,
              25.434108
            ],
            [
              81.8449033,
              25.433699
            ],
            [
              81.8447887,
              25.4336976
            ],
            [
              81.8447881,
              25.4337407
            ],
            [
              81.8446873,
              25.4337395
            ],
            [
              81.8446876,
              25.4337188
            ],
            [
              81.8445455,
              25.4337171
            ],
            [
              81.8445451,
              25.4337447
            ],
            [
              81.8444737,
              25.4337439
            ],
            [
              81.8444701,
              25.4339961
            ],
            [
              81.8445536,
              25.4339971
            ],
            [
              81.8445518,
              25.4341195
            ]
          ]
        ]
      }
    },
    {
      "type": "Feature",
      "properties": {
        "building_id": "B003",
        "parcel_id": "P003",
        "ground_elevation": 99.75,
        "roof_elevation": 120.75,
        "height": 21.0,
        "floor_count": 7,
        "building_type": "Healthcare / Hospital Wing"
      },
      "geometry": {
        "type": "Polygon",
        "coordinates": [
          [
            [
              81.8459905,
              25.4370768
            ],
            [
              81.8463277,
              25.4371813
            ],
            [
              81.8463415,
              25.437145
            ],
            [
              81.8465026,
              25.4371949
            ],
            [
              81.8465157,
              25.4371606
            ],
            [
              81.8464931,
              25.4371537
            ],
            [
              81.8465059,
              25.4371199
            ],
            [
              81.846452,
              25.4371032
            ],
            [
              81.8464866,
              25.4370121
            ],
            [
              81.8464204,
              25.4369916
            ],
            [
              81.8464633,
              25.4368786
            ],
            [
              81.8464127,
              25.4368629
            ],
            [
              81.8464255,
              25.4368292
            ],
            [
              81.8461205,
              25.4367347
            ],
            [
              81.8459905,
              25.4370768
            ]
          ]
        ]
      }
    },
    {
      "type": "Feature",
      "properties": {
        "building_id": "B004",
        "parcel_id": "P004",
        "ground_elevation": 98.22,
        "roof_elevation": 113.22,
        "height": 15.0,
        "floor_count": 5,
        "building_type": "Corporate Technology Hub"
      },
      "geometry": {
        "type": "Polygon",
        "coordinates": [
          [
            [
              81.8442099,
              25.4354582
            ],
            [
              81.8442028,
              25.4350949
            ],
            [
              81.8441876,
              25.4350952
            ],
            [
              81.8441856,
              25.4349959
            ],
            [
              81.8442075,
              25.4349956
            ],
            [
              81.844206,
              25.4349196
            ],
            [
              81.8439335,
              25.4349239
            ],
            [
              81.8439444,
              25.4354893
            ],
            [
              81.8440755,
              25.4354873
            ],
            [
              81.844075,
              25.4354603
            ],
            [
              81.8442099,
              25.4354582
            ]
          ]
        ]
      }
    },
    {
      "type": "Feature",
      "properties": {
        "building_id": "B005",
        "parcel_id": "P005",
        "ground_elevation": 99.49,
        "roof_elevation": 114.49,
        "height": 15.0,
        "floor_count": 5,
        "building_type": "Public Transit Terminal"
      },
      "geometry": {
        "type": "Polygon",
        "coordinates": [
          [
            [
              81.8455131,
              25.4340946
            ],
            [
              81.8460877,
              25.434091
            ],
            [
              81.8460869,
              25.433992
            ],
            [
              81.8456147,
              25.433995
            ],
            [
              81.8456143,
              25.4339489
            ],
            [
              81.8456861,
              25.4339485
            ],
            [
              81.8456851,
              25.4338237
            ],
            [
              81.8456044,
              25.4338242
            ],
            [
              81.8456032,
              25.4336692
            ],
            [
              81.8454833,
              25.4336699
            ],
            [
              81.8454842,
              25.4337829
            ],
            [
              81.8455107,
              25.4337827
            ],
            [
              81.8455131,
              25.4340946
            ]
          ]
        ]
      }
    },
    {
      "type": "Feature",
      "properties": {
        "building_id": "B006",
        "parcel_id": "P006",
        "ground_elevation": 99.1,
        "roof_elevation": 117.1,
        "height": 18.0,
        "floor_count": 6,
        "building_type": "Diagnostic Health Center"
      },
      "geometry": {
        "type": "Polygon",
        "coordinates": [
          [
            [
              81.8451465,
              25.4363243
            ],
            [
              81.8455012,
              25.4362643
            ],
            [
              81.8454499,
              25.4360165
            ],
            [
              81.8450951,
              25.4360765
            ],
            [
              81.8451465,
              25.4363243
            ]
          ]
        ]
      }
    },
    {
      "type": "Feature",
      "properties": {
        "building_id": "B007",
        "parcel_id": "P007",
        "ground_elevation": 99.22,
        "roof_elevation": 114.22,
        "height": 15.0,
        "floor_count": 5,
        "building_type": "Commercial Retail Arcade"
      },
      "geometry": {
        "type": "Polygon",
        "coordinates": [
          [
            [
              81.845281,
              25.4341149
            ],
            [
              81.8454968,
              25.4341141
            ],
            [
              81.8454962,
              25.4339638
            ],
            [
              81.8454754,
              25.4339639
            ],
            [
              81.8454748,
              25.4338227
            ],
            [
              81.8454606,
              25.4338228
            ],
            [
              81.84546,
              25.4336934
            ],
            [
              81.8452792,
              25.4336941
            ],
            [
              81.845281,
              25.4341149
            ]
          ]
        ]
      }
    },
    {
      "type": "Feature",
      "properties": {
        "building_id": "B008",
        "parcel_id": "P008",
        "ground_elevation": 98.2,
        "roof_elevation": 122.2,
        "height": 24.0,
        "floor_count": 8,
        "building_type": "Mixed Retail Plaza"
      },
      "geometry": {
        "type": "Polygon",
        "coordinates": [
          [
            [
              81.8439333,
              25.4347843
            ],
            [
              81.844063,
              25.4347815
            ],
            [
              81.8440627,
              25.4347694
            ],
            [
              81.8441738,
              25.434767
            ],
            [
              81.8441718,
              25.4346907
            ],
            [
              81.8441422,
              25.4346914
            ],
            [
              81.8441348,
              25.434409
            ],
            [
              81.8440688,
              25.4344104
            ],
            [
              81.8440681,
              25.4343855
            ],
            [
              81.8439229,
              25.4343886
            ],
            [
              81.8439333,
              25.4347843
            ]
          ]
        ]
      }
    }
  ]
}